NORAD_CAT_ID,OBJECT_NAME,OBJECT_TYPE,EPOCH,MEAN_MOTION,ECCENTRICITY,INCLINATION,RA_OF_ASC_NODE,ARG_OF_PERICENTER,MEAN_ANOMALY,BSTAR,MEAN_MOTION_DOT,MEAN_MOTION_DDOT,TLE_LINE0,TLE_LINE1,TLE_LINE2,SEMIMAJOR_AXIS,PERIOD,APOGEE,PERIGEE,DECAYED
52846.0,STARLINK-4212,PAYLOAD,2023-05-28 01:44:40,15.08837983,0.0001061,53.2182,277.9003,92.8176,267.2938,5.2834e-05,5.53e-06,0.0,0 STARLINK-4212,1 52846U 22062S   23148.07268844  .00000553  00000-0  52834-4 0  9993,2 52846  53.2182 277.9003 0001061  92.8176 267.2938 15.08837983 52317,6917.887,95.438,540.486,539.018,0.0
52846.0,STARLINK-4212,PAYLOAD,2023-05-28 17:38:30,15.0884868,9.2e-05,53.2168,274.9255,89.8326,270.2772,0.00011725,1.579e-05,0.0,0 STARLINK-4212,1 52846U 22062S   23148.73507950  .00001579  00000-0  11725-3 0  9992,2 52846  53.2168 274.9255 0000920  89.8326 270.2772 15.08848680 52904,6917.854,95.437,540.355,539.082,0.0
52846.0,STARLINK-4212,PAYLOAD,2023-05-29 01:35:27,15.08841544,9.61e-05,53.2165,273.4411,80.5494,279.5607,8.6808e-05,1.094e-05,0.0,0 STARLINK-4212,1 52846U 22062S   23149.06628525  .00001094  00000-0  86808-4 0  9998,2 52846  53.2165 273.4411 0000961  80.5494 279.5607 15.08841544 52954,6917.876,95.437,540.405,539.076,0.0
52846.0,STARLINK-4212,PAYLOAD,2023-05-29 14:18:32,15.08839406,8.67e-05,53.2164,271.0604,79.0513,281.0576,3.1552e-05,2.14e-06,0.0,0 STARLINK-4212,1 52846U 22062S   23149.59620779  .00000214  00000-0  31552-4 0  9998,2 52846  53.2164 271.0604 0000867  79.0513 281.0576 15.08839406 52543,6917.882,95.438,540.347,539.147,0.0
52846.0,STARLINK-4212,PAYLOAD,2023-05-29 17:29:18,15.08842651,8.97e-05,53.217,270.4637,81.57,278.5393,5.5454e-05,5.95e-06,0.0,0 STARLINK-4212,1 52846U 22062S   23149.72868444  .00000595  00000-0  55454-4 0  9995,2 52846  53.2170 270.4637 0000897  81.5700 278.5393 15.08842651 52564,6917.872,95.437,540.358,539.117,0.0
52846.0,STARLINK-4212,PAYLOAD,2023-05-30 12:33:56,15.08839323,8.69e-05,53.2166,266.8963,79.0067,281.1023,1.2677e-05,-8.6e-07,0.0,0 STARLINK-4212,1 52846U 22062S   23150.52356757 -.00000086  00000-0  12677-4 0  9990,2 52846  53.2166 266.8963 0000869  79.0067 281.1023 15.08839323 52682,6917.882,95.438,540.349,539.146,0.0
52846.0,STARLINK-4212,PAYLOAD,2023-05-30 14:09:19,15.08844307,8.9e-05,53.2165,266.5989,80.6436,279.4657,-1.7652e-05,-5.69e-06,0.0,0 STARLINK-4212,1 52846U 22062S   23150.58980555 -.00000569  00000-0 -17652-4 0  9990,2 52846  53.2165 266.5989 0000890  80.6436 279.4657 15.08844307 53185,6917.867,95.437,540.348,539.117,0.0
52846.0,STARLINK-4212,PAYLOAD,2023-05-31 10:49:19,15.08864252,9.43e-05,53.2164,262.7321,75.406,284.7037,-0.00035695,-5.968e-05,0.0,0 STARLINK-4212,1 52846U 22062S   23151.45091997 -.00005968  00000-0 -35695-3 0  9994,2 52846  53.2164 262.7321 0000943  75.4060 284.7037 15.08864252 53313,6917.806,95.436,540.324,539.019,0.0
52846.0,STARLINK-4212,PAYLOAD,2023-05-31 14:00:06,15.08843191,8.6e-05,53.2164,262.1379,89.9273,270.1818,3.0843e-05,2.03e-06,0.0,0 STARLINK-4212,1 52846U 22062S   23151.58340397  .00000203  00000-0  30843-4 0  9995,2 52846  53.2164 262.1379 0000860  89.9273 270.1818 15.08843191 52846,6917.871,95.437,540.331,539.141,0.0
52846.0,STARLINK-4212,PAYLOAD,2023-05-31 17:10:52,15.08844634,8.81e-05,53.2164,261.5426,92.086,268.0234,5.7901e-05,6.34e-06,0.0,0 STARLINK-4212,1 52846U 22062S   23151.71588175  .00000634  00000-0  57901-4 0  9990,2 52846  53.2164 261.5426 0000881  92.0860 268.0234 15.08844634 53350,6917.866,95.437,540.341,539.122,0.0
52846.0,STARLINK-4212,PAYLOAD,2023-06-01 10:40:07,15.08837357,9.8e-05,53.2166,258.2696,111.1559,248.9538,1.8594e-05,8e-08,0.0,0 STARLINK-4212,1 52846U 22062S   23152.44452758  .00000008  00000-0  18594-4 0  9998,2 52846  53.2166 258.2696 0000980 111.1559 248.9538 15.08837357 52977,6917.888,95.438,540.431,539.076,0.0
52846.0,STARLINK-4212,PAYLOAD,2023-06-02 12:06:17,15.0882931,9.92e-05,53.2164,253.5128,99.8482,260.2622,6.2971e-05,7.14e-06,0.0,0 STARLINK-4212,1 52846U 22062S   23153.50437436  .00000714  00000-0  62971-4 0  9994,2 52846  53.2164 253.5128 0000992  99.8482 260.2622 15.08829310 53627,6917.913,95.438,540.464,539.092,0.0
52846.0,STARLINK-4212,PAYLOAD,2023-06-02 13:41:40,15.08834695,0.0001011,53.2167,253.2142,105.4304,254.68,3.5541e-05,2.78e-06,0.0,0 STARLINK-4212,1 52846U 22062S   23153.57061116  .00000278  00000-0  35541-4 0  9997,2 52846  53.2167 253.2142 0001011 105.4304 254.6800 15.08834695 53147,6917.897,95.438,540.461,539.062,0.0
52846.0,STARLINK-4212,PAYLOAD,2023-06-02 16:52:26,15.08847474,9.35e-05,53.2169,252.62,100.5706,259.5392,-0.00014288,-2.561e-05,0.0,0 STARLINK-4212,1 52846U 22062S   23153.70308906 -.00002561  00000-0 -14288-3 0  9996,2 52846  53.2169 252.6200 0000935 100.5706 259.5392 15.08847474 53658,6917.858,95.437,540.369,539.076,0.0
52846.0,STARLINK-4212,PAYLOAD,2023-06-03 10:21:42,15.0883349,8.97e-05,53.2159,249.3529,100.4884,259.6209,-5.4069e-05,-1.148e-05,0.0,0 STARLINK-4212,1 52846U 22062S   23154.43173855 -.00001148  00000-0 -54069-4 0  9992,2 52846  53.2159 249.3529 0000897 100.4884 259.6209 15.08833490 53760,6917.9,95.438,540.386,539.145,0.0
52846.0,STARLINK-4212,PAYLOAD,2023-06-03 11:57:05,15.08832841,8.44e-05,53.2162,249.0577,75.2822,284.8264,-2.6409e-05,-7.08e-06,0.0,0 STARLINK-4212,1 52846U 22062S   23154.49797823 -.00000708  00000-0 -26409-4 0  9993,2 52846  53.2162 249.0577 0000844  75.2822 284.8264 15.08832841 53284,6917.902,95.438,540.351,539.183,0.0
52846.0,STARLINK-4212,PAYLOAD,2023-06-03 16:43:14,15.08838687,8.76e-05,53.2159,248.1631,94.6915,265.4177,-7.1584e-06,-4.02e-06,0.0,0 STARLINK-4212,1 52846U 22062S   23154.69669411 -.00000402  00000-0 -71584-5 0  9992,2 52846  53.2159 248.1631 0000876  94.6915 265.4177 15.08838687 53310,6917.884,95.438,540.355,539.143,0.0
52846.0,STARLINK-4212,PAYLOAD,2023-06-04 10:12:28,15.08835717,6.75e-05,53.2162,244.8917,99.0129,261.094,0.00013149,1.805e-05,0.0,0 STARLINK-4212,1 52846U 22062S   23155.42533337  .00001805  00000-0  13149-3 0  9998,2 52846  53.2162 244.8917 0000675  99.0129 261.0940 15.08835717 53914,6917.893,95.438,540.225,539.292,0.0
52846.0,STARLINK-4212,PAYLOAD,2023-06-04 13:23:14,15.0884861,0.0001112,53.2161,244.297,123.4135,236.6964,2.2463e-05,7e-07,0.0,0 STARLINK-4212,1 52846U 22062S   23155.55780894  .00000070  00000-0  22463-4 0  9997,2 52846  53.2161 244.2970 0001112 123.4135 236.6964 15.08848610 53440,6917.854,95.437,540.488,538.95,0.0
52846.0,STARLINK-4212,PAYLOAD,2023-06-04 22:55:33,15.0884227,8.11e-05,53.2161,242.5133,94.9527,265.1558,4.2824e-05,3.94e-06,0.0,0 STARLINK-4212,1 52846U 22062S   23155.95525205  .00000394  00000-0  42824-4 0  9996,2 52846  53.2161 242.5133 0000811  94.9527 265.1558 15.08842270 53996,6917.873,95.437,540.299,539.177,0.0
52846.0,STARLINK-4212,PAYLOAD,2023-06-05 13:14:02,15.08840187,9.26e-05,53.216,239.837,87.715,272.3948,0.00011024,1.467e-05,0.0,0 STARLINK-4212,1 52846U 22062S   23156.55141242  .00001467  00000-0  11024-3 0  9997,2 52846  53.2160 239.8370 0000926  87.7150 272.3948 15.08840187 53590,6917.88,95.438,540.385,539.104,0.0
52846.0,STARLINK-4212,PAYLOAD,2023-06-05 14:49:24,15.0884311,9.94e-05,53.2162,239.5385,86.9743,273.1363,0.00012302,1.671e-05,0.0,0 STARLINK-4212,1 52846U 22062S   23156.61765002  .00001671  00000-0  12302-3 0  9997,2 52846  53.2162 239.5385 0000994  86.9743 273.1363 15.08843110 53600,6917.871,95.437,540.424,539.048,0.0
52846.0,STARLINK-4212,PAYLOAD,2023-06-06 08:18:40,15.08830629,8.72e-05,53.2163,236.2672,89.2852,270.824,9.0252e-05,1.149e-05,0.0,0 STARLINK-4212,1 52846U 22062S   23157.34629854  .00001149  00000-0  90252-4 0  9993,2 52846  53.2163 236.2672 0000872  89.2852 270.8240 15.08830629 54202,6917.909,95.438,540.377,539.171,0.0
52846.0,STARLINK-4212,PAYLOAD,2023-06-06 11:29:26,15.08840527,9.99e-05,53.216,235.672,102.7708,257.3396,1.7059e-05,-1.6e-07,0.0,0 STARLINK-4212,1 52846U 22062S   23157.47877413 -.00000016  00000-0  17059-4 0  9990,2 52846  53.2160 235.6720 0000999 102.7708 257.3396 15.08840527 53734,6917.879,95.438,540.435,539.053,0.0
52846.0,STARLINK-4212,PAYLOAD,2023-06-07 06:34:03,15.08838237,8.78e-05,53.2159,232.1054,88.5576,271.5517,2.1058e-05,4.7e-07,0.0,0 STARLINK-4212,1 52846U 22062S   23158.27365452  .00000047  00000-0  21058-4 0  9991,2 52846  53.2159 232.1054 0000878  88.5576 271.5517 15.08838237 53855,6917.886,95.438,540.358,539.143,0.0
52846.0,STARLINK-4212,PAYLOAD,2023-06-07 22:27:55,15.08829694,9.79e-05,53.2157,229.1314,94.8839,265.2265,0.00016378,2.319e-05,0.0,0 STARLINK-4212,1 52846U 22062S   23158.93605618  .00002319  00000-0  16378-3 0  9997,2 52846  53.2157 229.1314 0000979  94.8839 265.2265 15.08829694 54445,6917.912,95.438,540.454,539.1,0.0
52846.0,STARLINK-4212,PAYLOAD,2023-06-08 14:21:46,15.08838919,9.86e-05,53.2156,226.1575,88.7176,271.3929,1.2192e-05,-9.4e-07,0.0,0 STARLINK-4212,1 52846U 22062S   23159.59845525 -.00000094  00000-0  12192-4 0  9993,2 52846  53.2156 226.1575 0000986  88.7176 271.3929 15.08838919 54056,6917.884,95.438,540.431,539.067,0.0
52846.0,STARLINK-4212,PAYLOAD,2023-06-09 11:01:46,15.08843566,0.0001006,53.2155,222.2923,79.681,280.4296,8.3645e-05,1.044e-05,0.0,0 STARLINK-4212,1 52846U 22062S   23160.45956982  .00001044  00000-0  83645-4 0  9996,2 52846  53.2155 222.2923 0001006  79.6810 280.4296 15.08843566 54677,6917.869,95.437,540.43,539.039,0.0
52846.0,STARLINK-4212,PAYLOAD,2023-06-09 20:34:06,15.08834019,9.58e-05,53.2153,220.5084,74.2276,285.8822,5.1636e-05,5.34e-06,0.0,0 STARLINK-4212,1 52846U 22062S   23160.85701611  .00000534  00000-0  51636-4 0  9995,2 52846  53.2153 220.5084 0000958  74.2276 285.8822 15.08834019 54246,6917.899,95.438,540.426,539.101,0.0
52846.0,STARLINK-4212,PAYLOAD,2023-06-10 04:31:02,15.08829677,9.99e-05,53.2153,219.0215,75.4468,284.6635,5.9822e-06,-1.93e-06,0.0,0 STARLINK-4212,1 52846U 22062S   23161.18822191 -.00000193  00000-0  59822-5 0  9997,2 52846  53.2153 219.0215 0000999  75.4468 284.6635 15.08829677 54788,6917.912,95.438,540.468,539.086,0.0
